$$SOE
2460728.500000000, A.D. 2025-Feb-22 00:00:00.0000, -1.694946742475745E+09, 2.360623664054395E+08, 2.042335399915614E+09,
2460735.500000000, A.D. 2025-Mar-01 00:00:00.0000, -1.693668947946546E+09, 2.362713953841305E+08, 2.046971609358944E+09,
2460742.500000000, A.D. 2025-Mar-08 00:00:00.0000, -1.692386819260545E+09, 2.364797318570552E+08, 2.051602577394850E+09,
2460749.500000000, A.D. 2025-Mar-15 00:00:00.0000, -1.691100368704167E+09, 2.366873791698823E+08, 2.056228308103333E+09,
2460756.500000000, A.D. 2025-Mar-22 00:00:00.0000, -1.689809609665028E+09, 2.368943428073077E+08, 2.060848805826363E+09,
2460763.500000000, A.D. 2025-Mar-29 00:00:00.0000, -1.688514557493337E+09, 2.371006285609202E+08, 2.065464075102782E+09,
2460770.500000000, A.D. 2025-Apr-05 00:00:00.0000, -1.687215228668701E+09, 2.373062415807936E+08, 2.070074120520793E+09,
2460777.500000000, A.D. 2025-Apr-12 00:00:00.0000, -1.685911640198318E+09, 2.375111864149988E+08, 2.074678946672875E+09,
2460784.500000000, A.D. 2025-Apr-19 00:00:00.0000, -1.684603809433745E+09, 2.377154671559709E+08, 2.079278558157985E+09,
2460791.500000000, A.D. 2025-Apr-26 00:00:00.0000, -1.683291754034573E+09, 2.379190874910293E+08, 2.083872959589287E+09,
2460798.500000000, A.D. 2025-May-03 00:00:00.0000, -1.681975491965341E+09, 2.381220506766137E+08, 2.088462155598310E+09,
2460805.500000000, A.D. 2025-May-10 00:00:00.0000, -1.680655041497106E+09, 2.383243594452517E+08, 2.093046150833445E+09,
2460812.500000000, A.D. 2025-May-17 00:00:00.0000, -1.679330421176914E+09, 2.385260158045475E+08, 2.097624949945934E+09,
2460819.500000000, A.D. 2025-May-24 00:00:00.0000, -1.678001649591280E+09, 2.387270206740105E+08, 2.102198557542845E+09,
2460826.500000000, A.D. 2025-May-31 00:00:00.0000, -1.676668744505885E+09, 2.389273736709558E+08, 2.106766978094084E+09,
2460833.500000000, A.D. 2025-Jun-07 00:00:00.0000, -1.675331721782427E+09, 2.391270742504851E+08, 2.111330215928651E+09,
2460840.500000000, A.D. 2025-Jun-14 00:00:00.0000, -1.673990596437196E+09, 2.393261235329021E+08, 2.115888275482527E+09,
2460847.500000000, A.D. 2025-Jun-21 00:00:00.0000, -1.672645384624600E+09, 2.395245235473834E+08, 2.120441161419269E+09,
2460854.500000000, A.D. 2025-Jun-28 00:00:00.0000, -1.671296103417430E+09, 2.397222756567562E+08, 2.124988878480647E+09,
2460861.500000000, A.D. 2025-Jul-05 00:00:00.0000, -1.669942769900615E+09, 2.399193803200196E+08, 2.129531431382696E+09,
2460868.500000000, A.D. 2025-Jul-12 00:00:00.0000, -1.668585400769433E+09, 2.401158373874140E+08, 2.134068824800686E+09,
2460875.500000000, A.D. 2025-Jul-19 00:00:00.0000, -1.667224012242636E+09, 2.403116463531227E+08, 2.138601063378675E+09,
2460882.500000000, A.D. 2025-Jul-26 00:00:00.0000, -1.665858620080549E+09, 2.405068065091813E+08, 2.143128151739873E+09,
2460889.500000000, A.D. 2025-Aug-02 00:00:00.0000, -1.664489239642741E+09, 2.407013170224068E+08, 2.147650094493677E+09,
2460896.500000000, A.D. 2025-Aug-09 00:00:00.0000, -1.663115885961879E+09, 2.408951769199438E+08, 2.152166896236198E+09,
2460903.500000000, A.D. 2025-Aug-16 00:00:00.0000, -1.661738573756802E+09, 2.410883849204634E+08, 2.156678561532210E+09,
2460910.500000000, A.D. 2025-Aug-23 00:00:00.0000, -1.660357317092185E+09, 2.412809391277846E+08, 2.161185094853250E+09,
2460917.500000000, A.D. 2025-Aug-30 00:00:00.0000, -1.658972128355876E+09, 2.414728373011965E+08, 2.165686500500278E+09,
2460924.500000000, A.D. 2025-Sep-06 00:00:00.0000, -1.657583017972026E+09, 2.416640787029319E+08, 2.170182782722974E+09,
2460931.500000000, A.D. 2025-Sep-13 00:00:00.0000, -1.656189996520746E+09, 2.418546650400901E+08, 2.174673945986241E+09,
2460938.500000000, A.D. 2025-Sep-20 00:00:00.0000, -1.654793075991100E+09, 2.420445988567257E+08, 2.179159994949584E+09,
2460945.500000000, A.D. 2025-Sep-27 00:00:00.0000, -1.653392269108846E+09, 2.422338824878409E+08, 2.183640934316746E+09,
2460952.500000000, A.D. 2025-Oct-04 00:00:00.0000, -1.651987588755644E+09, 2.424225181146818E+08, 2.188116768784845E+09,
2460959.500000000, A.D. 2025-Oct-11 00:00:00.0000, -1.650579047853373E+09, 2.426105079785266E+08, 2.192587503050300E+09,
2460966.500000000, A.D. 2025-Oct-18 00:00:00.0000, -1.649166659429888E+09, 2.427978544788061E+08, 2.197053141823149E+09,
2460973.500000000, A.D. 2025-Oct-25 00:00:00.0000, -1.647750436726704E+09, 2.429845601669016E+08, 2.201513689837844E+09,
2460980.500000000, A.D. 2025-Nov-01 00:00:00.0000, -1.646330393309174E+09, 2.431706276514986E+08, 2.205969151858039E+09,
2460987.500000000, A.D. 2025-Nov-08 00:00:00.0000, -1.644906543144687E+09, 2.433560593845490E+08, 2.210419532669509E+09,
2460994.500000000, A.D. 2025-Nov-15 00:00:00.0000, -1.643478900501039E+09, 2.435408572697433E+08, 2.214864837042635E+09,
2461001.500000000, A.D. 2025-Nov-22 00:00:00.0000, -1.642047479262368E+09, 2.437250223140572E+08, 2.219305069645306E+09,
2461008.500000000, A.D. 2025-Nov-29 00:00:00.0000, -1.640612291815914E+09, 2.439085554578084E+08, 2.223740235012821E+09,
2461015.500000000, A.D. 2025-Dec-06 00:00:00.0000, -1.639173349787077E+09, 2.440914594475931E+08, 2.228170337772369E+09,
2461022.500000000, A.D. 2025-Dec-13 00:00:00.0000, -1.637730666189151E+09, 2.442737383821492E+08, 2.232595382806723E+09,
2461029.500000000, A.D. 2025-Dec-20 00:00:00.0000, -1.636284255494593E+09, 2.444553959546379E+08, 2.237015375120227E+09,
2461036.500000000, A.D. 2025-Dec-27 00:00:00.0000, -1.634834132701636E+09, 2.446364349830934E+08, 2.241430319717299E+09,
2461043.500000000, A.D. 2026-Jan-03 00:00:00.0000, -1.633380312855469E+09, 2.448168576140226E+08, 2.245840221576933E+09,
2461050.500000000, A.D. 2026-Jan-10 00:00:00.0000, -1.631922810914232E+09, 2.449966655209413E+08, 2.250245085657697E+09,
2461057.500000000, A.D. 2026-Jan-17 00:00:00.0000, -1.630461641727245E+09, 2.451758600070882E+08, 2.254644916904480E+09,
2461064.500000000, A.D. 2026-Jan-24 00:00:00.0000, -1.628996820047558E+09, 2.453544420358787E+08, 2.259039720251791E+09,
2461071.500000000, A.D. 2026-Jan-31 00:00:00.0000, -1.627528360555334E+09, 2.455324121826092E+08, 2.263429500620934E+09,
2461078.500000000, A.D. 2026-Feb-07 00:00:00.0000, -1.626056277830574E+09, 2.457097704509995E+08, 2.267814262900878E+09,
2461085.500000000, A.D. 2026-Feb-14 00:00:00.0000, -1.624580586022116E+09, 2.458865159401566E+08, 2.272194011888434E+09,
2461092.500000000, A.D. 2026-Feb-21 00:00:00.0000, -1.623101297825345E+09, 2.460626469397908E+08, 2.276568752199488E+09,
2461099.500000000, A.D. 2026-Feb-28 00:00:00.0000, -1.621618423853458E+09, 2.462381626077619E+08, 2.280938488345107E+09,
2461106.500000000, A.D. 2026-Mar-07 00:00:00.0000, -1.620131974460831E+09, 2.464130642803463E+08, 2.285303225002094E+09,
2461113.500000000, A.D. 2026-Mar-14 00:00:00.0000, -1.618641961242779E+09, 2.465873540826355E+08, 2.289662967032818E+09,
2461120.500000000, A.D. 2026-Mar-21 00:00:00.0000, -1.617148396428823E+09, 2.467610337371254E+08, 2.294017719327748E+09,
2461127.500000000, A.D. 2026-Mar-28 00:00:00.0000, -1.615651292178867E+09, 2.469341045991857E+08, 2.298367486739167E+09,
2461134.500000000, A.D. 2026-Apr-04 00:00:00.0000, -1.614150660386007E+09, 2.471065679537587E+08, 2.302712274082696E+09,
2461141.500000000, A.D. 2026-Apr-11 00:00:00.0000, -1.612646512712029E+09, 2.472784252133261E+08, 2.307052086152254E+09,
2461148.500000000, A.D. 2026-Apr-18 00:00:00.0000, -1.611138860696223E+09, 2.474496780104312E+08, 2.311386927733500E+09,
2461155.500000000, A.D. 2026-Apr-25 00:00:00.0000, -1.609627715891418E+09, 2.476203281994523E+08, 2.315716803612983E+09,
2461162.500000000, A.D. 2026-May-02 00:00:00.0000, -1.608113089996242E+09, 2.477903777379987E+08, 2.320041718577919E+09,
2461169.500000000, A.D. 2026-May-09 00:00:00.0000, -1.606594994858591E+09, 2.479598283817127E+08, 2.324361677389946E+09,
2461176.500000000, A.D. 2026-May-16 00:00:00.0000, -1.605073441972014E+09, 2.481286813308362E+08, 2.328676684709613E+09,
2461183.500000000, A.D. 2026-May-23 00:00:00.0000, -1.603548441412871E+09, 2.482969378509603E+08, 2.332986745050484E+09,
2461190.500000000, A.D. 2026-May-30 00:00:00.0000, -1.602020002296518E+09, 2.484646011875368E+08, 2.337291862979589E+09,
2461197.500000000, A.D. 2026-Jun-06 00:00:00.0000, -1.600488135069724E+09, 2.486316765006244E+08, 2.341592043325752E+09,
2461204.500000000, A.D. 2026-Jun-13 00:00:00.0000, -1.598952851973294E+09, 2.487981690188251E+08, 2.345887291075678E+09,
2461211.500000000, A.D. 2026-Jun-20 00:00:00.0000, -1.597414166175916E+09, 2.489640833385636E+08, 2.350177611242677E+09,
2461218.500000000, A.D. 2026-Jun-27 00:00:00.0000, -1.595872091277606E+09, 2.491294235288751E+08, 2.354463008835777E+09,
2461225.500000000, A.D. 2026-Jul-04 00:00:00.0000, -1.594326641182834E+09, 2.492941932668442E+08, 2.358743488865643E+09,
2461232.500000000, A.D. 2026-Jul-11 00:00:00.0000, -1.592777830089457E+09, 2.494583958718356E+08, 2.363019056352931E+09,
2461239.500000000, A.D. 2026-Jul-18 00:00:00.0000, -1.591225672500715E+09, 2.496220342643176E+08, 2.367289716332449E+09,
2461246.500000000, A.D. 2026-Jul-25 00:00:00.0000, -1.589670183235888E+09, 2.497851108520546E+08, 2.371555473850841E+09,
2461253.500000000, A.D. 2026-Aug-01 00:00:00.0000, -1.588111377391541E+09, 2.499476272956283E+08, 2.375816333949275E+09,
2461260.500000000, A.D. 2026-Aug-08 00:00:00.0000, -1.586549270038508E+09, 2.501095841174854E+08, 2.380072301608355E+09,
2461267.500000000, A.D. 2026-Aug-15 00:00:00.0000, -1.584983875239666E+09, 2.502709806050230E+08, 2.384323381653872E+09,
2461274.500000000, A.D. 2026-Aug-22 00:00:00.0000, -1.583415205149632E+09, 2.504318162291540E+08, 2.388569578792981E+09,
2461281.500000000, A.D. 2026-Aug-29 00:00:00.0000, -1.581843271485608E+09, 2.505920922057803E+08, 2.392810897878527E+09,
2461288.500000000, A.D. 2026-Sep-05 00:00:00.0000, -1.580268087235841E+09, 2.507518103322020E+08, 2.397047343971429E+09,
2461295.500000000, A.D. 2026-Sep-12 00:00:00.0000, -1.578689666150878E+09, 2.509109715942576E+08, 2.401278922179960E+09,
$$EOE